[{"OBJECT_NAME":"STARLINK-30494","OBJECT_ID":"2023-151G","EPOCH":"2026-03-09T08:39:06.366240","MEAN_MOTION":15.28417441,"ECCENTRICITY":0.00011553,"INCLINATION":43.0027,"RA_OF_ASC_NODE":192.4566,"ARG_OF_PERICENTER":241.5536,"MEAN_ANOMALY":118.52,"EPHEMERIS_TYPE":0,"CLASSIFICATION_TYPE":"U","NORAD_CAT_ID":57970,"ELEMENT_SET_NO":999,"REV_AT_EPOCH":13740,"BSTAR":-3.569111e-5,"MEAN_MOTION_DOT":-1.272e-5,"MEAN_MOTION_DDOT":0},{"OBJECT_NAME":"STARLINK-34271","OBJECT_ID":"2025-127Q","EPOCH":"2026-03-09T07:00:57.741408","MEAN_MOTION":15.27599445,"ECCENTRICITY":8.125e-5,"INCLINATION":43.0006,"RA_OF_ASC_NODE":182.2596,"ARG_OF_PERICENTER":236.7164,"MEAN_ANOMALY":123.361,"EPHEMERIS_TYPE":0,"CLASSIFICATION_TYPE":"U","NORAD_CAT_ID":64384,"ELEMENT_SET_NO":999,"REV_AT_EPOCH":4240,"BSTAR":0.0013093836,"MEAN_MOTION_DOT":0.00035966,"MEAN_MOTION_DDOT":0}]
