STARLINK-30494          
1 57970U 23151G   26068.36049035 -.00001272  00000+0 -35691-4 0  9993
2 57970  43.0027 192.4566 0001155 241.5536 118.5200 15.28417441137406
STARLINK-34271          
1 64384U 25127Q   26068.29233497  .00035966  00000+0  13094-2 0  9990
2 64384  43.0006 182.2596 0000812 236.7164 123.3610 15.27599445 42400
